IRIDIUM 119             
1 42959U 17061E   24196.83678793  .00000552  00000+0  19020-3 0  9993
2 42959  86.3990 318.7578 0002304 100.7820 259.3635 14.34218377354142
IRIDIUM 107             
1 42960U 17061F   24196.78605016  .00000130  00000+0  39350-4 0  9998
2 42960  86.3989 318.7960 0002440  95.7352 264.4122 14.34218282354144
IRIDIUM 132             
1 42961U 17061G   24196.86216187  .00000050  00000+0  10808-4 0  9993
2 42961  86.3988 318.7486 0002504  92.5653 267.5829 14.34217748354152
IRIDIUM 136             
1 42962U 17061H   24196.89387070  .00000035  00000+0  53557-5 0  9999
2 42962  86.3989 318.7386 0002251 102.3408 257.8040 14.34215881354175
IRIDIUM 139             
1 42963U 17061J   24196.83044630  .00000039  00000+0  66962-5 0  9994
2 42963  86.3990 318.8157 0002568  95.2110 264.9379 14.34215886354175
IRIDIUM 125             
1 42964U 17061K   24196.88753184  .00000033  00000+0  48192-5 0  9990
2 42964  86.3992 318.8401 0002482 104.2365 255.9106 14.34217744354193
IRIDIUM 135             
1 43070U 17083A   24196.86165655  .00000357  00000+0  12055-3 0  9997
2 43070  86.3949 255.4992 0002097  86.6958 273.4478 14.34218690343486
IRIDIUM 138             
1 43071U 17083B   24196.67771764  .00000332  00000+0  11147-3 0  9995
2 43071  86.3938 255.2899 0002328 102.4476 257.6980 14.34220359343441
